NORAD_CAT_ID,OBJECT_NAME,OBJECT_TYPE,EPOCH,MEAN_MOTION,ECCENTRICITY,INCLINATION,RA_OF_ASC_NODE,ARG_OF_PERICENTER,MEAN_ANOMALY,BSTAR,MEAN_MOTION_DOT,MEAN_MOTION_DDOT,TLE_LINE0,TLE_LINE1,TLE_LINE2,SEMIMAJOR_AXIS,PERIOD,APOGEE,PERIGEE,DECAYED
49419.0,STARLINK-3120,PAYLOAD,2023-11-27 03:05:00,15.08800193,0.0001689,53.2177,11.1231,34.6787,325.4315,-0.00089702,-0.0001452,0.0,0 STARLINK-3120,1 49419U 21104M   23331.12847447 -.00014520  00000-0 -89702-3 0  9997,2 49419  53.2177  11.1231 0001689  34.6787 325.4315 15.08800193113870,6918.002,95.44,541.036,538.699,0.0
49419.0,STARLINK-3120,PAYLOAD,2023-11-27 09:26:33,15.08806321,0.0002078,53.2177,9.9363,72.8135,287.3084,-0.00061009,-9.976e-05,0.0,0 STARLINK-3120,1 49419U 21104M   23331.39343991 -.00009976  00000-0 -61009-3 0  9990,2 49419  53.2177   9.9363 0002078  72.8135 287.3084 15.08806321113918,6917.983,95.44,541.286,538.411,0.0
49419.0,STARLINK-3120,PAYLOAD,2023-11-27 23:45:01,15.08822813,0.0001886,53.2191,7.2603,87.3497,272.7711,5.0108e-06,-2.08e-06,0.0,0 STARLINK-3120,1 49419U 21104M   23331.98960118 -.00000208  00000-0  50108-5 0  9999,2 49419  53.2191   7.2603 0001886  87.3497 272.7711 15.08822813114000,6917.933,95.439,541.103,538.493,0.0
49419.0,STARLINK-3120,PAYLOAD,2023-11-28 09:17:20,15.08850972,0.0001837,53.2177,5.47,90.1754,269.9449,0.00097453,0.0001526,0.0,0 STARLINK-3120,1 49419U 21104M   23332.38703753  .00015260  00000-0  97453-3 0  9999,2 49419  53.2177   5.4700 0001837  90.1754 269.9449 15.08850972114065,6917.847,95.437,540.983,538.441,0.0
49419.0,STARLINK-3120,PAYLOAD,2023-11-28 12:28:06,15.08868128,0.0001923,53.218,4.8763,81.1101,279.0109,0.0017281,0.00027343,0.0,0 STARLINK-3120,1 49419U 21104M   23332.51951904  .00027343  00000-0  17281-2 0  9992,2 49419  53.2180   4.8763 0001923  81.1101 279.0109 15.08868128112990,6917.794,95.436,540.99,538.329,0.0
49419.0,STARLINK-3120,PAYLOAD,2023-11-29 02:46:34,15.08856973,0.0001929,53.2171,2.195,76.6399,283.4808,0.00052251,8.041e-05,0.0,0 STARLINK-3120,1 49419U 21104M   23333.11567604  .00008041  00000-0  52251-3 0  9990,2 49419  53.2171   2.1950 0001929  76.6399 283.4808 15.08856973114175,6917.829,95.436,541.028,538.359,0.0
49419.0,STARLINK-3120,PAYLOAD,2023-11-29 12:18:52,15.08875826,0.0002073,53.2169,0.4142,79.7166,280.406,0.00072808,0.0001133,0.0,0 STARLINK-3120,1 49419U 21104M   23333.51310709  .00011330  00000-0  72808-3 0  9991,2 49419  53.2169   0.4142 0002073  79.7166 280.4060 15.08875826113144,6917.771,95.435,541.07,538.202,0.0
49419.0,STARLINK-3120,PAYLOAD,2023-11-30 01:01:57,15.08856681,0.0003779,53.2164,358.0343,100.2501,259.8917,0.0003816,5.793e-05,0.0,0 STARLINK-3120,1 49419U 21104M   23334.04302880  .00005793  00000-0  38160-3 0  9990,2 49419  53.2164 358.0343 0003779 100.2501 259.8917 15.08856681114310,6917.829,95.436,542.309,537.08,0.0
49419.0,STARLINK-3120,PAYLOAD,2023-11-30 07:23:29,15.08879524,0.0002642,53.2172,356.847,120.9828,239.1424,0.0011834,0.00018617,0.0,0 STARLINK-3120,1 49419U 21104M   23334.30797916  .00018617  00000-0  11834-2 0  9994,2 49419  53.2172 356.8470 0002642 120.9828 239.1424 15.08879524114354,6917.76,95.435,541.452,537.797,0.0
49419.0,STARLINK-3120,PAYLOAD,2023-12-01 00:52:44,15.08853808,0.0002396,53.2162,353.5761,106.1768,253.9488,0.00071694,0.00011145,0.0,0 STARLINK-3120,1 49419U 21104M   23335.03662043  .00011145  00000-0  71694-3 0  9997,2 49419  53.2162 353.5761 0002396 106.1768 253.9488 15.08853808114468,6917.838,95.437,541.361,538.046,0.0
49419.0,STARLINK-3120,PAYLOAD,2023-12-01 10:25:03,15.08845147,0.0001511,53.2163,351.7912,90.2124,269.9041,0.00067929,0.00010541,0.0,0 STARLINK-3120,1 49419U 21104M   23335.43406385  .00010541  00000-0  67929-3 0  9991,2 49419  53.2163 351.7912 0001511  90.2124 269.9041 15.08845147114520,6917.865,95.437,540.775,538.684,0.0
49419.0,STARLINK-3120,PAYLOAD,2023-12-01 23:08:08,15.08841527,0.0001759,53.2183,349.4128,101.7732,258.3457,0.00084016,0.00013109,0.0,0 STARLINK-3120,1 49419U 21104M   23335.96398750  .00013109  00000-0  84016-3 0  9994,2 49419  53.2183 349.4128 0001759 101.7732 258.3457 15.08841527114602,6917.876,95.437,540.958,538.524,0.0
49419.0,STARLINK-3120,PAYLOAD,2023-12-02 08:40:26,15.08910113,0.0001822,53.2172,347.6344,78.1067,282.0129,0.0041516,0.00066537,0.0,0 STARLINK-3120,1 49419U 21104M   23336.36141929  .00066537  00000-0  41516-2 0  9993,2 49419  53.2172 347.6344 0001822  78.1067 282.0129 15.08910113114663,6917.666,95.433,540.791,538.271,0.0
49419.0,STARLINK-3120,PAYLOAD,2023-12-03 00:34:19,15.08797593,0.0001943,53.2185,344.6582,120.1203,239.9982,-0.00029192,-4.926e-05,0.0,0 STARLINK-3120,1 49419U 21104M   23337.02383377 -.00004926  00000-0 -29192-3 0  9995,2 49419  53.2185 344.6582 0001943 120.1203 239.9982 15.08797593114766,6918.01,95.44,541.219,538.531,0.0
49419.0,STARLINK-3120,PAYLOAD,2023-12-03 06:55:52,15.087867,0.0001948,53.2182,343.4682,114.4257,245.6939,0.00047137,7.211e-05,0.0,0 STARLINK-3120,1 49419U 21104M   23337.28880392  .00007211  00000-0  47137-3 0  9999,2 49419  53.2182 343.4682 0001948 114.4257 245.6939 15.08786700113719,6918.043,95.441,541.256,538.561,0.0
49419.0,STARLINK-3120,PAYLOAD,2023-12-04 03:35:54,15.08828918,0.0002604,53.218,339.6061,130.0055,230.1166,0.0010686,0.00016755,0.0,0 STARLINK-3120,1 49419U 21104M   23338.14993660  .00016755  00000-0  10686-2 0  9999,2 49419  53.2180 339.6061 0002604 130.0055 230.1166 15.08828918114939,6917.914,95.438,541.581,537.978,0.0
49419.0,STARLINK-3120,PAYLOAD,2023-12-04 09:57:27,15.08855632,0.000203,53.2176,338.4134,107.2481,252.8733,0.0017126,0.00027085,0.0,0 STARLINK-3120,1 49419U 21104M   23338.41489691  .00027085  00000-0  17126-2 0  9997,2 49419  53.2176 338.4134 0002030 107.2481 252.8733 15.08855632113881,6917.833,95.437,541.102,538.293,0.0
49419.0,STARLINK-3120,PAYLOAD,2023-12-05 03:26:40,15.08876975,0.0002199,53.2174,335.1404,116.7318,243.3899,0.001404,0.0002215,0.0,0 STARLINK-3120,1 49419U 21104M   23339.14352597  .00022150  00000-0  14040-2 0  9992,2 49419  53.2174 335.1404 0002199 116.7318 243.3899 15.08876975115088,6917.767,95.435,541.154,538.111,0.0
49419.0,STARLINK-3120,PAYLOAD,2023-12-05 06:37:26,15.08881664,0.0002144,53.2175,334.5466,112.877,247.2449,0.001437,0.00022682,0.0,0 STARLINK-3120,1 49419U 21104M   23339.27600300  .00022682  00000-0  14370-2 0  9990,2 49419  53.2175 334.5466 0002144 112.8770 247.2449 15.08881664114016,6917.753,95.435,541.101,538.135,0.0
49419.0,STARLINK-3120,PAYLOAD,2023-12-06 04:52:50,15.0886118,0.0002131,53.2178,330.3825,113.2505,246.8711,0.00028932,4.322e-05,0.0,0 STARLINK-3120,1 49419U 21104M   23340.20335690  .00004322  00000-0  28932-3 0  9993,2 49419  53.2178 330.3825 0002131 113.2505 246.8711 15.08861180115243,6917.816,95.436,541.155,538.206,0.0
49419.0,STARLINK-3120,PAYLOAD,2023-12-06 09:38:59,15.08855301,0.0001954,53.2181,329.4919,107.5372,252.5834,0.00033157,4.995e-05,0.0,0 STARLINK-3120,1 49419U 21104M   23340.40207679  .00004995  00000-0  33157-3 0  9991,2 49419  53.2181 329.4919 0001954 107.5372 252.5834 15.08855301114180,6917.834,95.437,541.05,538.347,0.0
49419.0,STARLINK-3120,PAYLOAD,2023-12-07 03:08:14,15.08840583,0.0002282,53.217,326.2161,116.4186,243.7041,0.00017744,2.537e-05,0.0,0 STARLINK-3120,1 49419U 21104M   23341.13071877  .00002537  00000-0  17744-3 0  9995,2 49419  53.2170 326.2161 0002282 116.4186 243.7041 15.08840583115380,6917.879,95.438,541.322,538.165,0.0
49419.0,STARLINK-3120,PAYLOAD,2023-12-07 09:29:46,15.08835887,0.0002261,53.2187,325.0289,114.1906,245.9322,-4.3977e-05,-9.88e-06,0.0,0 STARLINK-3120,1 49419U 21104M   23341.39568220 -.00000988  00000-0 -43977-4 0  9994,2 49419  53.2187 325.0289 0002261 114.1906 245.9322 15.08835887114339,6917.893,95.438,541.322,538.194,0.0
49419.0,STARLINK-3120,PAYLOAD,2023-12-08 07:45:11,15.08835638,0.0001896,53.2183,320.8647,95.3274,264.7934,0.00028996,4.329e-05,0.0,0 STARLINK-3120,1 49419U 21104M   23342.32304657  .00004329  00000-0  28996-3 0  9994,2 49419  53.2183 320.8647 0001896  95.3274 264.7934 15.08835638114474,6917.894,95.438,541.07,538.447,0.0
49419.0,STARLINK-3120,PAYLOAD,2023-12-09 04:25:11,15.08843708,0.0001911,53.2179,317.0007,98.4873,261.6336,0.00016354,2.316e-05,0.0,0 STARLINK-3120,1 49419U 21104M   23343.18416252  .00002316  00000-0  16354-3 0  9993,2 49419  53.2179 317.0007 0001911  98.4873 261.6336 15.08843708115698,6917.869,95.437,541.056,538.412,0.0
49419.0,STARLINK-3120,PAYLOAD,2023-12-09 06:00:34,15.08844901,0.0001894,53.218,316.7033,96.4796,263.6412,0.00017847,2.554e-05,0.0,0 STARLINK-3120,1 49419U 21104M   23343.25040206  .00002554  00000-0  17847-3 0  9995,2 49419  53.2180 316.7033 0001894  96.4796 263.6412 15.08844901114611,6917.865,95.437,541.041,538.42,0.0
49419.0,STARLINK-3120,PAYLOAD,2023-12-11 04:06:46,15.08839684,0.0002057,53.2181,308.0837,81.8493,278.2732,4.1601e-05,3.74e-06,0.0,0 STARLINK-3120,1 49419U 21104M   23345.17136737  .00000374  00000-0  41601-4 0  9997,2 49419  53.2181 308.0837 0002057  81.8493 278.2732 15.08839684115993,6917.881,95.438,541.169,538.323,0.0
49419.0,STARLINK-3120,PAYLOAD,2023-12-12 03:57:32,15.08847441,0.0001788,53.2188,303.625,73.6398,286.4791,0.0001333,1.834e-05,0.0,0 STARLINK-3120,1 49419U 21104M   23346.16496129  .00001834  00000-0  13330-3 0  9990,2 49419  53.2188 303.6250 0001788  73.6398 286.4791 15.08847441116147,6917.858,95.437,540.96,538.486,0.0
49419.0,STARLINK-3120,PAYLOAD,2023-12-13 02:12:56,15.08841652,0.000175,53.2192,299.4661,104.6566,255.462,5.7707e-05,6.3e-06,0.0,0 STARLINK-3120,1 49419U 21104M   23347.09232605  .00000630  00000-0  57707-4 0  9990,2 49419  53.2192 299.4661 0001750 104.6566 255.4620 15.08841652116281,6917.875,95.437,540.951,538.53,0.0
49419.0,STARLINK-3120,PAYLOAD,2023-12-14 03:39:07,15.08823273,0.0002114,53.2195,294.7095,110.7758,249.346,0.00032029,4.811e-05,0.0,0 STARLINK-3120,1 49419U 21104M   23348.15217041  .00004811  00000-0  32029-3 0  9999,2 49419  53.2195 294.7095 0002114 110.7758 249.3460 15.08823273116440,6917.932,95.439,541.259,538.334,0.0
